OBJECT_NAME,OBJECT_ID,EPOCH,MEAN_MOTION,ECCENTRICITY,INCLINATION,RA_OF_ASC_NODE,ARG_OF_PERICENTER,MEAN_ANOMALY,EPHEMERIS_TYPE,CLASSIFICATION_TYPE,NORAD_CAT_ID,ELEMENT_SET_NO,REV_AT_EPOCH,BSTAR,MEAN_MOTION_DOT,MEAN_MOTION_DDOT
STARLINK-37665,2026-117A,2026-06-25T14:04:18.339168,15.78611954,.0001449,53.1564,201.4801,133.1005,227.0138,0,U,69238,999,430,-.52039E-2,-.841176E-2,0
STARLINK-37558,2026-117B,2026-06-25T14:01:40.501056,15.80863751,.0000788,53.1569,201.4679,87.3362,272.7751,0,U,69239,999,430,.32569E-3,.64032E-3,0
STARLINK-37680,2026-117C,2026-06-25T12:27:41.142816,15.80716632,.000056,53.1563,201.7705,116.3821,243.7259,0,U,69240,999,429,-.22294E-2,-.417075E-2,0
STARLINK-37742,2026-117D,2026-06-25T13:56:43.309248,15.81047745,.0002858,53.1563,201.4447,113.6877,246.4446,0,U,69241,999,430,.23328E-2,.49079E-2,0
STARLINK-37718,2026-117E,2026-06-25T13:54:34.979328,15.80790095,.000068,53.1559,201.4323,280.4127,79.6819,0,U,69242,999,430,.42322E-3,.83319E-3,0
STARLINK-37735,2026-117F,2026-06-25T13:54:35.083872,15.80768729,.0001146,53.1553,201.4330,316.0602,44.0329,0,U,69243,999,430,.1207E-3,.23075E-3,0
STARLINK-37757,2026-117G,2026-06-25T20:00:01.999008,15.77046056,.0000981,53.1584,200.1641,84.5344,279.9006,0,U,69244,999,557,-.73304E-2,-.1092234E-1,0
STARLINK-37767,2026-117H,2026-06-25T20:00:01.999008,15.79157921,.0000608,53.1581,200.1118,79.7738,309.8082,0,U,69245,999,557,-.16041E-1,-.2504386E-1,0
STARLINK-35759,2026-117J,2026-06-25T20:00:01.999008,15.79128641,.0000864,53.1583,200.0797,84.5198,320.1895,0,U,69246,999,562,-.16141E-1,-.2515072E-1,0
STARLINK-37238,2026-117K,2026-06-25T20:00:01.999008,15.66728794,.0000742,53.1591,200.1888,79.6783,271.1168,0,U,69247,999,557,-.27602E-1,-.2572129E-1,0
STARLINK-37412,2026-117L,2026-06-25T09:00:22.756896,15.80853152,.0002809,53.1570,202.2846,20.2449,339.8684,0,U,69248,999,427,.13416E-2,.272369E-2,0
STARLINK-37398,2026-117M,2026-06-25T13:51:34.915680,15.73684807,.0000908,53.1576,201.4173,25.7870,334.3194,0,U,69249,999,430,-.75788E-2,-.984551E-2,0
STARLINK-37499,2026-117N,2026-06-25T20:00:01.999008,15.72755285,.00011,53.1590,200.0497,53.9669,4.6524,0,U,69250,999,564,-.21743E-1,-.2605724E-1,0
STARLINK-37489,2026-117P,2026-06-25T20:00:01.999008,15.70272761,.0001173,53.1589,200.0666,61.1910,349.5545,0,U,69251,999,564,-.14121E-1,-.1561722E-1,0
STARLINK-37434,2026-117Q,2026-06-25T20:00:01.999008,15.59348242,.0001014,53.1595,200.2750,91.3625,216.6609,0,U,69252,999,557,-.35591E-1,-.2487842E-1,0
STARLINK-37368,2026-117R,2026-06-25T20:00:01.999008,15.77270964,.0001127,53.1588,199.8310,116.6716,47.8347,0,U,69253,999,564,-.63046E-2,-.946843E-2,0
STARLINK-37517,2026-117S,2026-06-25T13:13:25.327776,15.80334140,.0001745,53.1561,201.2378,205.3788,154.7149,0,U,69254,999,430,-.17761E-2,-.329961E-2,0
STARLINK-37378,2026-117T,2026-06-25T20:46:42.559968,15.78901149,.0001397,53.1568,199.6462,210.8925,149.2015,0,U,69255,999,435,-.21297E-2,-.368798E-2,0
STARLINK-37396,2026-117U,2026-06-25T20:43:18.056352,15.78714128,.0001312,53.1571,199.6304,282.8454,77.2421,0,U,69256,999,435,-.22907E-2,-.39222E-2,0
STARLINK-37508,2026-117V,2026-06-25T20:00:01.999008,15.79700477,.0000554,53.1581,199.8643,97.3395,49.7191,0,U,69257,999,556,-.16272E-1,-.2588599E-1,0
STARLINK-37276,2026-117W,2026-06-25T20:00:01.999008,15.55173588,.0000887,53.1594,199.9840,71.3998,14.4662,0,U,69258,999,556,-.41615E-1,-.2534752E-1,0
STARLINK-37518,2026-117X,2026-06-25T20:00:01.999008,15.55260226,.00008,53.1595,199.9986,77.9983,0.5140,0,U,69259,999,557,-.41031E-1,-.2460745E-1,0
STARLINK-37478,2026-117Y,2026-06-25T20:00:01.999008,15.49300276,.0002049,53.1601,200.5299,81.2573,95.7628,0,U,69260,999,557,.10055E-2,.55861E-3,0
STARLINK-37506,2026-117Z,2026-06-25T20:00:01.999008,15.51523674,.0000767,53.1588,200.1187,90.7068,289.0545,0,U,69261,999,557,-.51193E-1,-.2703857E-1,0
STARLINK-37503,2026-117AA,2026-06-25T20:00:01.999008,15.59098547,.0001141,53.1595,199.8602,61.3522,85.0990,0,U,69262,999,557,-.36735E-1,-.2535789E-1,0
STARLINK-37502,2026-117AB,2026-06-25T20:00:01.999008,15.53909709,.0001083,53.1594,200.0205,59.3442,7.8453,0,U,69263,999,557,-.44171E-1,-.2563971E-1,0
STARLINK-37486,2026-117AC,2026-06-25T20:00:01.999008,15.62393248,.00013,53.1597,199.8378,69.4199,87.6293,0,U,69264,999,557,-.28928E-1,-.2302533E-1,0
STARLINK-37435,2026-117AD,2026-06-23T19:43:07.095360,15.79009549,.00037564,53.1569,209.6360,20.7271,339.3902,0,U,69265,999,403,-.20733796E-2,-.361406E-2,0
STARLINK-37464,2026-117AE,2026-06-25T14:09:52.600032,15.72523940,.0001432,53.1597,200.7540,132.0242,228.0899,0,U,69266,999,431,-.17164E-2,-.228413E-2,0
KUIPER-00282,2026-118A,2026-06-25T19:41:51.067680,15.33974110,.0013401,51.8593,12.0099,214.3221,145.6899,0,U,69267,999,530,.53886E-3,.17689E-3,0
