STARLINK-37665          
1 69238U 26117A   26176.58632337 -.00841176  00000+0 -52039-2 0  9993
2 69238  53.1564 201.4801 0001449 133.1005 227.0138 15.78611954  4308
STARLINK-37558          
1 69239U 26117B   26176.58449654  .00064032  00000+0  32569-3 0  9995
2 69239  53.1569 201.4679 0000788  87.3362 272.7751 15.80863751  4303
STARLINK-37680          
1 69240U 26117C   26176.51922619 -.00417075  00000+0 -22294-2 0  9991
2 69240  53.1563 201.7705 0000560 116.3821 243.7259 15.80716632  4297
STARLINK-37742          
1 69241U 26117D   26176.58105682  .00490790  00000+0  23328-2 0  9994
2 69241  53.1563 201.4447 0002858 113.6877 246.4446 15.81047745  4304
STARLINK-37718          
1 69242U 26117E   26176.57957152  .00083319  00000+0  42322-3 0  9992
2 69242  53.1559 201.4323 0000680 280.4127  79.6819 15.80790095  4307
STARLINK-37735          
1 69243U 26117F   26176.57957273  .00023075  00000+0  12070-3 0  9997
2 69243  53.1553 201.4330 0001146 316.0602  44.0329 15.80768729  4303
STARLINK-37757          
1 69244U 26117G   26176.83335647 -.01092234  00000+0 -73304-2 0  9994
2 69244  53.1584 200.1641 0000981  84.5344 279.9006 15.77046056  5574
STARLINK-37767          
1 69245U 26117H   26176.83335647 -.02504386  00000+0 -16041-1 0  9996
2 69245  53.1581 200.1118 0000608  79.7738 309.8082 15.79157921  5573
STARLINK-35759          
1 69246U 26117J   26176.83335647 -.02515072  00000+0 -16141-1 0  9992
2 69246  53.1583 200.0797 0000864  84.5198 320.1895 15.79128641  5627
STARLINK-37238          
1 69247U 26117K   26176.83335647 -.02572129  00000+0 -27602-1 0  9993
2 69247  53.1591 200.1888 0000742  79.6783 271.1168 15.66728794  5572
STARLINK-37412          
1 69248U 26117L   26176.37526339  .00272369  00000+0  13416-2 0  9991
2 69248  53.1570 202.2846 0002809  20.2449 339.8684 15.80853152  4278
STARLINK-37398          
1 69249U 26117M   26176.57748745 -.00984551  00000+0 -75788-2 0  9996
2 69249  53.1576 201.4173 0000908  25.7870 334.3194 15.73684807  4306
STARLINK-37499          
1 69250U 26117N   26176.83335647 -.02605724  00000+0 -21743-1 0  9995
2 69250  53.1590 200.0497 0001100  53.9669   4.6524 15.72755285  5642
STARLINK-37489          
1 69251U 26117P   26176.83335647 -.01561722  00000+0 -14121-1 0  9996
2 69251  53.1589 200.0666 0001173  61.1910 349.5545 15.70272761  5644
STARLINK-37434          
1 69252U 26117Q   26176.83335647 -.02487842  00000+0 -35591-1 0  9992
2 69252  53.1595 200.2750 0001014  91.3625 216.6609 15.59348242  5572
STARLINK-37368          
1 69253U 26117R   26176.83335647 -.00946843  00000+0 -63046-2 0  9999
2 69253  53.1588 199.8310 0001127 116.6716  47.8347 15.77270964  5643
STARLINK-37517          
1 69254U 26117S   26176.55098759 -.00329961  00000+0 -17761-2 0  9998
2 69254  53.1561 201.2378 0001745 205.3788 154.7149 15.80334140  4309
STARLINK-37378          
1 69255U 26117T   26176.86577037 -.00368798  00000+0 -21297-2 0  9994
2 69255  53.1568 199.6462 0001397 210.8925 149.2015 15.78901149  4350
STARLINK-37396          
1 69256U 26117U   26176.86340343 -.00392220  00000+0 -22907-2 0  9999
2 69256  53.1571 199.6304 0001312 282.8454  77.2421 15.78714128  4353
STARLINK-37508          
1 69257U 26117V   26176.83335647 -.02588599  00000+0 -16272-1 0  9993
2 69257  53.1581 199.8643 0000554  97.3395  49.7191 15.79700477  5568
STARLINK-37276          
1 69258U 26117W   26176.83335647 -.02534752  00000+0 -41615-1 0  9995
2 69258  53.1594 199.9840 0000887  71.3998  14.4662 15.55173588  5566
STARLINK-37518          
1 69259U 26117X   26176.83335647 -.02460745  00000+0 -41031-1 0  9998
2 69259  53.1595 199.9986 0000800  77.9983   0.5140 15.55260226  5574
STARLINK-37478          
1 69260U 26117Y   26176.83335647  .00055861  00000+0  10055-2 0  9998
2 69260  53.1601 200.5299 0002049  81.2573  95.7628 15.49300276  5570
STARLINK-37506          
1 69261U 26117Z   26176.83335647 -.02703857  00000+0 -51193-1 0  9995
2 69261  53.1588 200.1187 0000767  90.7068 289.0545 15.51523674  5574
STARLINK-37503          
1 69262U 26117AA  26176.83335647 -.02535789  00000+0 -36735-1 0  9998
2 69262  53.1595 199.8602 0001141  61.3522  85.0990 15.59098547  5577
STARLINK-37502          
1 69263U 26117AB  26176.83335647 -.02563971  00000+0 -44171-1 0  9996
2 69263  53.1594 200.0205 0001083  59.3442   7.8453 15.53909709  5575
STARLINK-37486          
1 69264U 26117AC  26176.83335647 -.02302533  00000+0 -28928-1 0  9994
2 69264  53.1597 199.8378 0001300  69.4199  87.6293 15.62393248  5571
STARLINK-37435          
1 69265U 26117AD  26174.82160990 -.00361406  00000+0 -20734-2 0  9999
2 69265  53.1569 209.6360 0003756  20.7271 339.3902 15.79009549  4030
STARLINK-37464          
1 69266U 26117AE  26176.59019213 -.00228413  00000+0 -17164-2 0  9990
2 69266  53.1597 200.7540 0001432 132.0242 228.0899 15.72523940  4317
KUIPER-00282            
1 69267U 26118A   26176.82072995  .00017689  00000+0  53886-3 0  9995
2 69267  51.8593  12.0099 0013401 214.3221 145.6899 15.33974110  5302
